<?xml version="1.0" encoding="UTF-8"?>
<ndm xmlns:xsi="http://www.w3.org/2001/XMLSchema-instance" xsi:noNamespaceSchemaLocation="https://sanaregistry.org/r/ndmxml_unqualified/ndmxml-2.0.0-master-2.0.xsd">
<omm id="CCSDS_OMM_VERS" version="2.0">
<header><CREATION_DATE/><ORIGINATOR/></header><body><segment><metadata><OBJECT_NAME>GLOBALSTAR M094</OBJECT_NAME><OBJECT_ID>2013-005C</OBJECT_ID><CENTER_NAME>EARTH</CENTER_NAME><REF_FRAME>TEME</REF_FRAME><TIME_SYSTEM>UTC</TIME_SYSTEM><MEAN_ELEMENT_THEORY>SGP4</MEAN_ELEMENT_THEORY></metadata><data><meanElements><EPOCH>2024-06-07T15:16:26.395968</EPOCH><MEAN_MOTION>12.62266665</MEAN_MOTION><ECCENTRICITY>.000071</ECCENTRICITY><INCLINATION>51.9954</INCLINATION><RA_OF_ASC_NODE>242.5149</RA_OF_ASC_NODE><ARG_OF_PERICENTER>149.3655</ARG_OF_PERICENTER><MEAN_ANOMALY>210.7253</MEAN_ANOMALY></meanElements><tleParameters><EPHEMERIS_TYPE>0</EPHEMERIS_TYPE><CLASSIFICATION_TYPE>U</CLASSIFICATION_TYPE><NORAD_CAT_ID>39074</NORAD_CAT_ID><ELEMENT_SET_NO>999</ELEMENT_SET_NO><REV_AT_EPOCH>52507</REV_AT_EPOCH><BSTAR>.22895E-3</BSTAR><MEAN_MOTION_DOT>-.63E-6</MEAN_MOTION_DOT><MEAN_MOTION_DDOT>0</MEAN_MOTION_DDOT></tleParameters></data></segment></body></omm>
<omm id="CCSDS_OMM_VERS" version="2.0">
<header><CREATION_DATE/><ORIGINATOR/></header><body><segment><metadata><OBJECT_NAME>GLOBALSTAR M096</OBJECT_NAME><OBJECT_ID>2013-005D</OBJECT_ID><CENTER_NAME>EARTH</CENTER_NAME><REF_FRAME>TEME</REF_FRAME><TIME_SYSTEM>UTC</TIME_SYSTEM><MEAN_ELEMENT_THEORY>SGP4</MEAN_ELEMENT_THEORY></metadata><data><meanElements><EPOCH>2024-06-07T15:35:21.423264</EPOCH><MEAN_MOTION>12.62266422</MEAN_MOTION><ECCENTRICITY>.0001066</ECCENTRICITY><INCLINATION>52.0082</INCLINATION><RA_OF_ASC_NODE>290.6961</RA_OF_ASC_NODE><ARG_OF_PERICENTER>128.7214</ARG_OF_PERICENTER><MEAN_ANOMALY>231.3748</MEAN_ANOMALY></meanElements><tleParameters><EPHEMERIS_TYPE>0</EPHEMERIS_TYPE><CLASSIFICATION_TYPE>U</CLASSIFICATION_TYPE><NORAD_CAT_ID>39075</NORAD_CAT_ID><ELEMENT_SET_NO>999</ELEMENT_SET_NO><REV_AT_EPOCH>52399</REV_AT_EPOCH><BSTAR>.12627E-3</BSTAR><MEAN_MOTION_DOT>-.81E-6</MEAN_MOTION_DOT><MEAN_MOTION_DDOT>0</MEAN_MOTION_DDOT></tleParameters></data></segment></body></omm>
<omm id="CCSDS_OMM_VERS" version="2.0">
<header><CREATION_DATE/><ORIGINATOR/></header><body><segment><metadata><OBJECT_NAME>GLOBALSTAR M078</OBJECT_NAME><OBJECT_ID>2013-005E</OBJECT_ID><CENTER_NAME>EARTH</CENTER_NAME><REF_FRAME>TEME</REF_FRAME><TIME_SYSTEM>UTC</TIME_SYSTEM><MEAN_ELEMENT_THEORY>SGP4</MEAN_ELEMENT_THEORY></metadata><data><meanElements><EPOCH>2024-06-07T18:45:51.352704</EPOCH><MEAN_MOTION>12.62275320</MEAN_MOTION><ECCENTRICITY>.0001727</ECCENTRICITY><INCLINATION>51.9895</INCLINATION><RA_OF_ASC_NODE>15.3142</RA_OF_ASC_NODE><ARG_OF_PERICENTER>77.5498</ARG_OF_PERICENTER><MEAN_ANOMALY>282.5562</MEAN_ANOMALY></meanElements><tleParameters><EPHEMERIS_TYPE>0</EPHEMERIS_TYPE><CLASSIFICATION_TYPE>U</CLASSIFICATION_TYPE><NORAD_CAT_ID>39076</NORAD_CAT_ID><ELEMENT_SET_NO>999</ELEMENT_SET_NO><REV_AT_EPOCH>52263</REV_AT_EPOCH><BSTAR>-.4616E-3</BSTAR><MEAN_MOTION_DOT>-.187E-5</MEAN_MOTION_DOT><MEAN_MOTION_DDOT>0</MEAN_MOTION_DDOT></tleParameters></data></segment></body></omm>
<omm id="CCSDS_OMM_VERS" version="2.0">
<header><CREATION_DATE/><ORIGINATOR/></header><body><segment><metadata><OBJECT_NAME>GLOBALSTAR M095</OBJECT_NAME><OBJECT_ID>2013-005F</OBJECT_ID><CENTER_NAME>EARTH</CENTER_NAME><REF_FRAME>TEME</REF_FRAME><TIME_SYSTEM>UTC</TIME_SYSTEM><MEAN_ELEMENT_THEORY>SGP4</MEAN_ELEMENT_THEORY></metadata><data><meanElements><EPOCH>2024-06-07T21:17:00.952512</EPOCH><MEAN_MOTION>12.62263703</MEAN_MOTION><ECCENTRICITY>.0001464</ECCENTRICITY><INCLINATION>51.9819</INCLINATION><RA_OF_ASC_NODE>12.3728</RA_OF_ASC_NODE><ARG_OF_PERICENTER>95.4575</ARG_OF_PERICENTER><MEAN_ANOMALY>264.6459</MEAN_ANOMALY></meanElements><tleParameters><EPHEMERIS_TYPE>0</EPHEMERIS_TYPE><CLASSIFICATION_TYPE>U</CLASSIFICATION_TYPE><NORAD_CAT_ID>39077</NORAD_CAT_ID><ELEMENT_SET_NO>999</ELEMENT_SET_NO><REV_AT_EPOCH>52250</REV_AT_EPOCH><BSTAR>.15062E-3</BSTAR><MEAN_MOTION_DOT>-.77E-6</MEAN_MOTION_DOT><MEAN_MOTION_DDOT>0</MEAN_MOTION_DDOT></tleParameters></data></segment></body></omm>
<omm id="CCSDS_OMM_VERS" version="2.0">
<header><CREATION_DATE/><ORIGINATOR/></header><body><segment><metadata><OBJECT_NAME>GLOBALSTAR M087</OBJECT_NAME><OBJECT_ID>2022-064A</OBJECT_ID><CENTER_NAME>EARTH</CENTER_NAME><REF_FRAME>TEME</REF_FRAME><TIME_SYSTEM>UTC</TIME_SYSTEM><MEAN_ELEMENT_THEORY>SGP4</MEAN_ELEMENT_THEORY></metadata><data><meanElements><EPOCH>2024-06-07T22:01:46.695648</EPOCH><MEAN_MOTION>13.37576102</MEAN_MOTION><ECCENTRICITY>.0009011</ECCENTRICITY><INCLINATION>51.9752</INCLINATION><RA_OF_ASC_NODE>240.7038</RA_OF_ASC_NODE><ARG_OF_PERICENTER>343.1921</ARG_OF_PERICENTER><MEAN_ANOMALY>16.8680</MEAN_ANOMALY></meanElements><tleParameters><EPHEMERIS_TYPE>0</EPHEMERIS_TYPE><CLASSIFICATION_TYPE>U</CLASSIFICATION_TYPE><NORAD_CAT_ID>52888</NORAD_CAT_ID><ELEMENT_SET_NO>999</ELEMENT_SET_NO><REV_AT_EPOCH>9628</REV_AT_EPOCH><BSTAR>.13412E-3</BSTAR><MEAN_MOTION_DOT>-.58E-6</MEAN_MOTION_DOT><MEAN_MOTION_DDOT>0</MEAN_MOTION_DDOT></tleParameters></data></segment></body></omm>
</ndm>
