GLOBALSTAR M094         
1 39074U 13005C   24159.63641662 -.00000063  00000+0  22895-3 0  9995
2 39074  51.9954 242.5149 0000710 149.3655 210.7253 12.62266665525077
GLOBALSTAR M096         
1 39075U 13005D   24159.64955351 -.00000081  00000+0  12627-3 0  9992
2 39075  52.0082 290.6961 0001066 128.7214 231.3748 12.62266422523993
GLOBALSTAR M078         
1 39076U 13005E   24159.78184436 -.00000187  00000+0 -46160-3 0  9993
2 39076  51.9895  15.3142 0001727  77.5498 282.5562 12.62275320522635
GLOBALSTAR M095         
1 39077U 13005F   24159.88681658 -.00000077  00000+0  15062-3 0  9997
2 39077  51.9819  12.3728 0001464  95.4575 264.6459 12.62263703522506
GLOBALSTAR M087         
1 52888U 22064A   24159.91790157 -.00000058  00000+0  13412-3 0  9992
2 52888  51.9752 240.7038 0009011 343.1921  16.8680 13.37576102 96289
